SL-14 R/B               
1 21423U 91042B   26055.72520023  .00000444  00000+0  53224-4 0  9998
2 21423  82.4900 232.3412 0015576 285.1575  74.7916 14.81814415851152
ERS-1                   
1 21574U 91050A   26055.97677021  .00000285  00000+0  10600-3 0  9995
2 21574  98.7890  73.8917 0031036 238.9484 120.8656 14.39437792813906
ARIANE 40 R/B           
1 21610U 91050F   26055.15646034  .00000254  00000+0  88633-4 0  9994
2 21610  98.2043 107.8990 0004330 110.4443 249.7213 14.42882431817044
INTERCOSMOS 25          
1 21819U 91086A   26055.20074776  .00001337  00000+0  25626-3 0  9993
2 21819  82.6073 318.1598 1487093 145.9899 224.6211 12.11956560495058
SL-8 R/B                
1 21876U 92008B   26055.62293612  .00000010  00000+0 -56969-5 0  9993
2 21876  82.9236 277.5005 0034853 169.1646 203.4016 13.75969914707620
SL-8 R/B                
1 21938U 92020B   26055.76543435  .00000086  00000+0  74021-4 0  9992
2 21938  82.9344 163.3543 0028259 336.1980 187.8825 13.75547832699352
USA 81                  
1 21949U 92023A   26055.31595662  .00000182  00000+0  59916-4 0  9990
2 21949  85.0109 139.1542 0002736  89.3084 270.8422 14.32362948 92878
COSMOS 2219             
1 22219U 92076A   26055.92959986  .00000349  00000+0  20760-3 0  9998
2 22219  71.0598  44.7419 0019594 224.0865 135.8696 14.14083698716570
SL-16 R/B               
1 22220U 92076B   26055.49353841  .00000270  00000+0  15828-3 0  9992
2 22220  70.9984 216.1695 0010921 120.6200 296.0036 14.16856265719963
COSMOS 2221             
1 22236U 92080A   26055.59594338  .00001738  00000+0  15193-3 0  9998
2 22236  82.5030 291.6240 0013010 233.8811 126.1207 14.96144732778833
SL-16 R/B               
1 22285U 92093B   26055.38285489  .00000171  00000+0  11169-3 0  9996
2 22285  71.0225  32.1990 0005924 308.0439  52.0149 14.15448741711277
COSMOS 2228             
1 22286U 92094A   26055.95509880  .00002070  00000+0  17664-3 0  9991
2 22286  82.5148 249.5057 0017699 349.5052  10.5798 14.97119769774150
